$$SOE
2461302.500000000, A.D. 2026-Sep-19 00:00:00.0000, -2.918855483165337E+08, -1.487996984505509E+08, 2.145887326715282E+07,
2461309.500000000, A.D. 2026-Sep-26 00:00:00.0000, -2.861107326262047E+08, -1.597287732798775E+08, 2.148803709841580E+07,
2461316.500000000, A.D. 2026-Oct-03 00:00:00.0000, -2.799437320437455E+08, -1.704388899436405E+08, 2.148774579134645E+07,
2461323.500000000, A.D. 2026-Oct-10 00:00:00.0000, -2.733932416188657E+08, -1.809155191390612E+08, 2.145801836400566E+07,
2461330.500000000, A.D. 2026-Oct-17 00:00:00.0000, -2.664685212675042E+08, -1.911445034295166E+08, 2.139891810223889E+07,
2461337.500000000, A.D. 2026-Oct-24 00:00:00.0000, -2.591793777381740E+08, -2.011120813469458E+08, 2.131055231601527E+07,
2461344.500000000, A.D. 2026-Oct-31 00:00:00.0000, -2.515361453358101E+08, -2.108049106167224E+08, 2.119307197419807E+07,
2461351.500000000, A.D. 2026-Nov-07 00:00:00.0000, -2.435496651356676E+08, -2.202100903663383E+08, 2.104667119484169E+07,
2461358.500000000, A.D. 2026-Nov-14 00:00:00.0000, -2.352312625619814E+08, -2.293151813712446E+08, 2.087158664769473E+07,
2461365.500000000, A.D. 2026-Nov-21 00:00:00.0000, -2.265927252210113E+08, -2.381082236020241E+08, 2.066809709360057E+07,
2461372.500000000, A.D. 2026-Nov-28 00:00:00.0000, -2.176462820668958E+08, -2.465777540350418E+08, 2.043652290952297E+07,
2461379.500000000, A.D. 2026-Dec-05 00:00:00.0000, -2.084045803667647E+08, -2.547128253467259E+08, 2.017722521746004E+07,
2461386.500000000, A.D. 2026-Dec-12 00:00:00.0000, -1.988806603899951E+08, -2.625030223494197E+08, 1.989060486107841E+07,
2461393.500000000, A.D. 2026-Dec-19 00:00:00.0000, -1.890879297980957E+08, -2.699384761342714E+08, 1.957710140846898E+07,
2461400.500000000, A.D. 2026-Dec-26 00:00:00.0000, -1.790401379651741E+08, -2.770098767661576E+08, 1.923719212759821E+07,
2461407.500000000, A.D. 2027-Jan-02 00:00:00.0000, -1.687513500392746E+08, -2.837084847065504E+08, 1.887139089770523E+07,
2461414.500000000, A.D. 2027-Jan-09 00:00:00.0000, -1.582359207144548E+08, -2.900261409391313E+08, 1.848024705204546E+07,
2461421.500000000, A.D. 2027-Jan-16 00:00:00.0000, -1.475084677671743E+08, -2.959552757920977E+08, 1.806434415468381E+07,
2461428.500000000, A.D. 2027-Jan-23 00:00:00.0000, -1.365838453997926E+08, -3.014889165042978E+08, 1.762429870939736E+07,
2461435.500000000, A.D. 2027-Jan-30 00:00:00.0000, -1.254771172895817E+08, -3.066206935952080E+08, 1.716075878491633E+07,
2461442.500000000, A.D. 2027-Feb-06 00:00:00.0000, -1.142035290015454E+08, -3.113448457166946E+08, 1.667440255053729E+07,
2461449.500000000, A.D. 2027-Feb-13 00:00:00.0000, -1.027784803053630E+08, -3.156562217901508E+08, 1.616593686914432E+07,
2461456.500000000, A.D. 2027-Feb-20 00:00:00.0000, -9.121749983626534E+07, -3.195502812474912E+08, 1.563609610470518E+07,
2461463.500000000, A.D. 2027-Feb-27 00:00:00.0000, -7.953622077578850E+07, -3.230230956236843E+08, 1.508564075844349E+07,
2461470.500000000, A.D. 2027-Mar-06 00:00:00.0000, -6.775035460530847E+07, -3.260713496195957E+08, 1.451535581940724E+07,
2461477.500000000, A.D. 2027-Mar-13 00:00:00.0000, -5.587566460264276E+07, -3.286923396272016E+08, 1.392604914915691E+07,
2461484.500000000, A.D. 2027-Mar-20 00:00:00.0000, -4.392794027594705E+07, -3.308839705891202E+08, 1.331854994053827E+07,
2461491.500000000, A.D. 2027-Mar-27 00:00:00.0000, -3.192297258844409E+07, -3.326447517768129E+08, 1.269370719065267E+07,
2461498.500000000, A.D. 2027-Apr-03 00:00:00.0000, -1.987652981561296E+07, -3.339737915751088E+08, 1.205238816837434E+07,
2461505.500000000, A.D. 2027-Apr-10 00:00:00.0000, -7.804334010366833E+06, -3.348707913013456E+08, 1.139547687591968E+07,
2461512.500000000, A.D. 2027-Apr-17 00:00:00.0000, 4.277961909831828E+06, -3.353360381367790E+08, 1.072387250575069E+07,
2461519.500000000, A.D. 2027-Apr-24 00:00:00.0000, 1.635479649399705E+07, -3.353703972998081E+08, 1.003848788585171E+07,
2461526.500000000, A.D. 2027-May-01 00:00:00.0000, 2.841072176734699E+07, -3.349753034962142E+08, 9.340247893219307E+06,
2461533.500000000, A.D. 2027-May-08 00:00:00.0000, 4.043042519331412E+07, -3.341527509551799E+08, 8.630087872546360E+06,
2461540.500000000, A.D. 2027-May-15 00:00:00.0000, 5.239875006407172E+07, -3.329052811511002E+08, 7.908952278398067E+06,
2461547.500000000, A.D. 2027-May-22 00:00:00.0000, 6.430071273574664E+07, -3.312359708537638E+08, 7.177793474889129E+06,
2461554.500000000, A.D. 2027-May-29 00:00:00.0000, 7.612152005118208E+07, -3.291484220278054E+08, 6.437570267283186E+06,
2461561.500000000, A.D. 2027-Jun-05 00:00:00.0000, 8.784658782616405E+07, -3.266467505066141E+08, 5.689246342852727E+06,
2461568.500000000, A.D. 2027-Jun-12 00:00:00.0000, 9.946155838484897E+07, -3.237355730658602E+08, 4.933788842936605E+06,
2461575.500000000, A.D. 2027-Jun-19 00:00:00.0000, 1.109523168095824E+08, -3.204199938865488E+08, 4.172167022342309E+06,
2461582.500000000, A.D. 2027-Jun-26 00:00:00.0000, 1.223050061836134E+08, -3.167055907224742E+08, 3.405350951030970E+06,
2461589.500000000, A.D. 2027-Jul-03 00:00:00.0000, 1.335060419597023E+08, -3.125984008155283E+08, 2.634310248274371E+06,
2461596.500000000, A.D. 2027-Jul-10 00:00:00.0000, 1.445421254936146E+08, -3.081049065981901E+08, 1.860012847783923E+06,
2461603.500000000, A.D. 2027-Jul-17 00:00:00.0000, 1.554002567838467E+08, -3.032320212653018E+08, 1.083423788062930E+06,
2461610.500000000, A.D. 2027-Jul-24 00:00:00.0000, 1.660677465839055E+08, -2.979870743184587E+08, 3.055040093649030E+05,
2461617.500000000, A.D. 2027-Jul-31 00:00:00.0000, 1.765322283127404E+08, -2.923777968880047E+08, -4.727908599181473E+05,
2461624.500000000, A.D. 2027-Aug-07 00:00:00.0000, 1.867816695792052E+08, -2.864123057209066E+08, -1.250511613579378E+06,
2461631.500000000, A.D. 2027-Aug-14 00:00:00.0000, 1.968043810376757E+08, -2.800990861251259E+08, -2.026716283528373E+06,
2461638.500000000, A.D. 2027-Aug-21 00:00:00.0000, 2.065890232133332E+08, -2.734469772683224E+08, -2.800470992912650E+06,
2461645.500000000, A.D. 2027-Aug-28 00:00:00.0000, 2.161246147518165E+08, -2.664651586615649E+08, -3.570851062977478E+06,
2461652.500000000, A.D. 2027-Sep-04 00:00:00.0000, 2.254005409364974E+08, -2.591631353616316E+08, -4.336942061084390E+06,
2461659.500000000, A.D. 2027-Sep-11 00:00:00.0000, 2.344065611006229E+08, -2.515507225865444E+08, -5.097840716496140E+06,
2461666.500000000, A.D. 2027-Sep-18 00:00:00.0000, 2.431328150892978E+08, -2.436380304229647E+08, -5.852655770089149E+06,
2461673.500000000, A.D. 2027-Sep-25 00:00:00.0000, 2.515698290226192E+08, -2.354354487274675E+08, -6.600508786256179E+06,
2461680.500000000, A.D. 2027-Oct-02 00:00:00.0000, 2.597085204583299E+08, -2.269536322156386E+08, -7.340534932601094E+06,
2461687.500000000, A.D. 2027-Oct-09 00:00:00.0000, 2.675402029997897E+08, -2.182034857626159E+08, -8.071883730919883E+06,
2461694.500000000, A.D. 2027-Oct-16 00:00:00.0000, 2.750565904348051E+08, -2.091961499856627E+08, -8.793719790998042E+06,
2461701.500000000, A.D. 2027-Oct-23 00:00:00.0000, 2.822498006884344E+08, -1.999429871257415E+08, -9.505223552802160E+06,
2461708.500000000, A.D. 2027-Oct-30 00:00:00.0000, 2.891123599922594E+08, -1.904555666281450E+08, -1.020559202245580E+07,
2461715.500000000, A.D. 2027-Nov-06 00:00:00.0000, 2.956372061365518E+08, -1.807456493079971E+08, -1.089403930382277E+07,
2461722.500000000, A.D. 2027-Nov-13 00:00:00.0000, 3.018176888448558E+08, -1.708251721900478E+08, -1.156979691444843E+07,
2461729.500000000, A.D. 2027-Nov-20 00:00:00.0000, 3.076475701938255E+08, -1.607062362150363E+08, -1.223211433207267E+07,
2461736.500000000, A.D. 2027-Nov-27 00:00:00.0000, 3.131210267197171E+08, -1.504010938521674E+08, -1.288025967898754E+07,
2461743.500000000, A.D. 2027-Dec-04 00:00:00.0000, 3.182326512133276E+08, -1.399221357102475E+08, -1.351352028501775E+07,
2461750.500000000, A.D. 2027-Dec-11 00:00:00.0000, 3.229774536743085E+08, -1.292818771182634E+08, -1.413120315851355E+07,
2461757.500000000, A.D. 2027-Dec-18 00:00:00.0000, 3.273508617157714E+08, -1.184929450183522E+08, -1.473263541935609E+07,
2461764.500000000, A.D. 2027-Dec-25 00:00:00.0000, 3.313487205836127E+08, -1.075680651715726E+08, -1.531716470902114E+07,
2461771.500000000, A.D. 2028-Jan-01 00:00:00.0000, 3.349672928464165E+08, -9.652004965439087E+07, -1.588415958110220E+07,
$$EOE